start=new Date('2022-01-07T00:00:00.000Z').valueOf();
sats=[{"OBJECT_ID":"2021-009H","EPHEMERIS_TYPE":"0","CENTER_NAME":"EARTH","SITE":"AFETR","ELEMENT_SET_NO":"999","DECAY_DATE":null,"INCLINATION":"53.0548","MEAN_ELEMENT_THEORY":"SGP4","REF_FRAME":"TEME","SEMIMAJOR_AXIS":"6925.377","COUNTRY_CODE":"US","MEAN_MOTION":"15.06390649","ECCENTRICITY":"0.00015500","OBJECT_TYPE":"PAYLOAD","CLASSIFICATION_TYPE":"U","TIME_SYSTEM":"UTC","PERIOD":"95.593","RCS_SIZE":"LARGE","REV_AT_EPOCH":"5120","ARG_OF_PERICENTER":"83.7627","NORAD_CAT_ID":"47555","EPOCH":"2022-01-06T09:52:55.959456","RA_OF_ASC_NODE":"19.8827","BSTAR":"0.00000226000000","TLE_LINE2":"2 47555  53.0548  19.8827 0001550  83.7627 276.3539 15.06390649 51208","TLE_LINE1":"1 47555U 21009H   22006.41175879 -.00000248  00000-0  22600-5 0  9990","LAUNCH_DATE":"2021-02-04","MEAN_MOTION_DOT":"-0.00000248","GP_ID":"193323497","OBJECT_NAME":"STARLINK-1954","MEAN_ANOMALY":"276.3539","PERIAPSIS":"546.169","MEAN_MOTION_DDOT":"0.0000000000000","APOAPSIS":"548.316","FILE":"3265629"},{"OBJECT_ID":"2021-009J","MEAN_ELEMENT_THEORY":"SGP4","INCLINATION":"53.0562","DECAY_DATE":null,"SITE":"AFETR","CENTER_NAME":"EARTH","ELEMENT_SET_NO":"999","EPHEMERIS_TYPE":"0","PERIOD":"95.593","TIME_SYSTEM":"UTC","CLASSIFICATION_TYPE":"U","OBJECT_TYPE":"PAYLOAD","ECCENTRICITY":"0.00012780","COUNTRY_CODE":"US","MEAN_MOTION":"15.06389402","SEMIMAJOR_AXIS":"6925.381","REF_FRAME":"TEME","RA_OF_ASC_NODE":"39.1176","BSTAR":"0.00001918500000","EPOCH":"2022-01-06T13:54:25.778592","NORAD_CAT_ID":"47556","ARG_OF_PERICENTER":"70.8782","REV_AT_EPOCH":"5094","RCS_SIZE":"LARGE","TLE_LINE1":"1 47556U 21009J   22006.57946503  .00000004  00000-0  19185-4 0  9990","TLE_LINE2":"2 47556  53.0562  39.1176 0001278  70.8782 289.2346 15.06389402 50947","LAUNCH_DATE":"2021-02-04","MEAN_ANOMALY":"289.2346","PERIAPSIS":"546.361","OBJECT_NAME":"STARLINK-1955","GP_ID":"193353899","MEAN_MOTION_DOT":"0.00000004","APOAPSIS":"548.131","FILE":"3265870","MEAN_MOTION_DDOT":"0.0000000000000"},{"MEAN_MOTION_DOT":"0.00001481","GP_ID":"193354149","MEAN_ANOMALY":"294.5580","PERIAPSIS":"546.234","OBJECT_NAME":"STARLINK-1956","APOAPSIS":"548.229","FILE":"3265870","MEAN_MOTION_DDOT":"0.0000000000000","TLE_LINE2":"2 47557  53.0563  39.0064 0001441  65.5560 294.5580 15.06394162 50950","TLE_LINE1":"1 47557U 21009K   22006.60894722  .00001481  00000-0  11833-3 0  9991","LAUNCH_DATE":"2021-02-04","ECCENTRICITY":"0.00014410","OBJECT_TYPE":"PAYLOAD","REF_FRAME":"TEME","SEMIMAJOR_AXIS":"6925.366","COUNTRY_CODE":"US","MEAN_MOTION":"15.06394162","TIME_SYSTEM":"UTC","PERIOD":"95.593","CLASSIFICATION_TYPE":"U","REV_AT_EPOCH":"5095","RCS_SIZE":"LARGE","EPOCH":"2022-01-06T14:36:53.039808","RA_OF_ASC_NODE":"39.0064","BSTAR":"0.00011833000000","ARG_OF_PERICENTER":"65.5560","NORAD_CAT_ID":"47557","OBJECT_ID":"2021-009K","SITE":"AFETR","CENTER_NAME":"EARTH","ELEMENT_SET_NO":"999","EPHEMERIS_TYPE":"0","INCLINATION":"53.0563","MEAN_ELEMENT_THEORY":"SGP4","DECAY_DATE":null},{"DECAY_DATE":null,"MEAN_ELEMENT_THEORY":"SGP4","INCLINATION":"53.0574","EPHEMERIS_TYPE":"0","CENTER_NAME":"EARTH","SITE":"AFETR","ELEMENT_SET_NO":"999","OBJECT_ID":"2021-009L","NORAD_CAT_ID":"47558","ARG_OF_PERICENTER":"63.8698","BSTAR":"-0.00001597500000","RA_OF_ASC_NODE":"9.3707","EPOCH":"2022-01-06T12:33:29.478240","RCS_SIZE":"LARGE","REV_AT_EPOCH":"5135","CLASSIFICATION_TYPE":"U","PERIOD":"95.593","TIME_SYSTEM":"UTC","MEAN_MOTION":"15.06388447","COUNTRY_CODE":"US","SEMIMAJOR_AXIS":"6925.384","REF_FRAME":"TEME","OBJECT_TYPE":"PAYLOAD","ECCENTRICITY":"0.00014870","LAUNCH_DATE":"2021-02-04","TLE_LINE1":"1 47558U 21009L   22006.52325785 -.00000519  00000-0 -15975-4 0  9996","TLE_LINE2":"2 47558  53.0574   9.3707 0001487  63.8698 296.2444 15.06388447 51352","MEAN_MOTION_DDOT":"0.0000000000000","APOAPSIS":"548.279","FILE":"3265629","OBJECT_NAME":"STARLINK-1957","MEAN_ANOMALY":"296.2444","PERIAPSIS":"546.219","GP_ID":"193323748","MEAN_MOTION_DOT":"-0.00000519"},{"MEAN_MOTION_DDOT":"0.0000000000000","APOAPSIS":"548.427","FILE":"3265629","GP_ID":"193323998","MEAN_MOTION_DOT":"0.00000094","OBJECT_NAME":"STARLINK-1958","MEAN_ANOMALY":"299.9239","PERIAPSIS":"546.021","LAUNCH_DATE":"2021-02-04","TLE_LINE2":"2 47559  53.0555 359.5416 0001737  60.1923 299.9239 15.06396644 51493","TLE_LINE1":"1 47559U 21009M   22006.48731386  .00000094  00000-0  25226-4 0  9996","RCS_SIZE":"LARGE","REV_AT_EPOCH":"5149","NORAD_CAT_ID":"47559","ARG_OF_PERICENTER":"60.1923","BSTAR":"0.00002522600000","RA_OF_ASC_NODE":"359.5416","EPOCH":"2022-01-06T11:41:43.917504","COUNTRY_CODE":"US","MEAN_MOTION":"15.06396644","REF_FRAME":"TEME","SEMIMAJOR_AXIS":"6925.359","OBJECT_TYPE":"PAYLOAD","ECCENTRICITY":"0.00017370","CLASSIFICATION_TYPE":"U","PERIOD":"95.592","TIME_SYSTEM":"UTC","EPHEMERIS_TYPE":"0","ELEMENT_SET_NO":"999","SITE":"AFETR","CENTER_NAME":"EARTH","DECAY_DATE":null,"MEAN_ELEMENT_THEORY":"SGP4","INCLINATION":"53.0555","OBJECT_ID":"2021-009M"},{"EPOCH":"2022-01-06T11:31:06.796992","BSTAR":"-0.00001172600000","RA_OF_ASC_NODE":"359.5831","ARG_OF_PERICENTER":"68.7438","NORAD_CAT_ID":"47560","REV_AT_EPOCH":"5149","RCS_SIZE":"LARGE","TIME_SYSTEM":"UTC","PERIOD":"95.592","CLASSIFICATION_TYPE":"U","ECCENTRICITY":"0.00014550","OBJECT_TYPE":"PAYLOAD","REF_FRAME":"TEME","SEMIMAJOR_AXIS":"6925.346","MEAN_MOTION":"15.06400871","COUNTRY_CODE":"US","INCLINATION":"53.0559","MEAN_ELEMENT_THEORY":"SGP4","DECAY_DATE":null,"SITE":"AFETR","CENTER_NAME":"EARTH","ELEMENT_SET_NO":"999","EPHEMERIS_TYPE":"0","OBJECT_ID":"2021-009N","FILE":"3265629","APOAPSIS":"548.219","MEAN_MOTION_DDOT":"0.0000000000000","PERIAPSIS":"546.203","MEAN_ANOMALY":"291.3706","OBJECT_NAME":"STARLINK-1959","MEAN_MOTION_DOT":"-0.00000456","GP_ID":"193324748","LAUNCH_DATE":"2021-02-04","TLE_LINE1":"1 47560U 21009N   22006.47993978 -.00000456  00000-0 -11726-4 0  9998","TLE_LINE2":"2 47560  53.0559 359.5831 0001455  68.7438 291.3706 15.06400871 51495"},{"CLASSIFICATION_TYPE":"U","PERIOD":"95.592","TIME_SYSTEM":"UTC","COUNTRY_CODE":"US","MEAN_MOTION":"15.06394568","REF_FRAME":"TEME","SEMIMAJOR_AXIS":"6925.365","OBJECT_TYPE":"PAYLOAD","ECCENTRICITY":"0.00028000","NORAD_CAT_ID":"47561","ARG_OF_PERICENTER":"182.9861","RA_OF_ASC_NODE":"19.3452","BSTAR":"0.00003756800000","EPOCH":"2022-01-06T12:48:04.953888","RCS_SIZE":"LARGE","REV_AT_EPOCH":"5122","OBJECT_ID":"2021-009P","DECAY_DATE":null,"MEAN_ELEMENT_THEORY":"SGP4","INCLINATION":"53.0555","EPHEMERIS_TYPE":"0","CENTER_NAME":"EARTH","SITE":"AFETR","ELEMENT_SET_NO":"999","OBJECT_NAME":"STARLINK-1960","MEAN_ANOMALY":"177.1112","PERIAPSIS":"545.291","GP_ID":"193324497","MEAN_MOTION_DOT":"0.00000278","MEAN_MOTION_DDOT":"0.0000000000000","APOAPSIS":"549.169","FILE":"3265629","TLE_LINE1":"1 47561U 21009P   22006.53339067  .00000278  00000-0  37568-4 0  9991","TLE_LINE2":"2 47561  53.0555  19.3452 0002800 182.9861 177.1112 15.06394568 51224","LAUNCH_DATE":"2021-02-04"},{"TLE_LINE1":"1 47562U 21009Q   22006.54812566 -.00000298  00000-0 -11375-5 0  9996","TLE_LINE2":"2 47562  53.0569  19.2763 0001406  57.5168 302.5957 15.06405261 51822","LAUNCH_DATE":"2021-02-04","MEAN_ANOMALY":"302.5957","PERIAPSIS":"546.224","OBJECT_NAME":"STARLINK-1961","GP_ID":"193330621","MEAN_MOTION_DOT":"-0.00000298","FILE":"3265770","APOAPSIS":"548.171","MEAN_MOTION_DDOT":"0.0000000000000","OBJECT_ID":"2021-009Q","MEAN_ELEMENT_THEORY":"SGP4","INCLINATION":"53.0569","DECAY_DATE":null,"SITE":"AFETR","CENTER_NAME":"EARTH","ELEMENT_SET_NO":"999","EPHEMERIS_TYPE":"0","PERIOD":"95.592","TIME_SYSTEM":"UTC","CLASSIFICATION_TYPE":"U","OBJECT_TYPE":"PAYLOAD","ECCENTRICITY":"0.00014060","MEAN_MOTION":"15.06405261","COUNTRY_CODE":"US","SEMIMAJOR_AXIS":"6925.332","REF_FRAME":"TEME","RA_OF_ASC_NODE":"19.2763","BSTAR":"-0.00000113750000","EPOCH":"2022-01-06T13:09:18.057024","NORAD_CAT_ID":"47562","ARG_OF_PERICENTER":"57.5168","REV_AT_EPOCH":"5182","RCS_SIZE":"LARGE"},{"NORAD_CAT_ID":"47563","ARG_OF_PERICENTER":"66.4935","RA_OF_ASC_NODE":"19.7731","BSTAR":"0.00020180000000","EPOCH":"2022-01-06T10:30:04.474656","RCS_SIZE":"LARGE","REV_AT_EPOCH":"5120","CLASSIFICATION_TYPE":"U","PERIOD":"95.592","TIME_SYSTEM":"UTC","COUNTRY_CODE":"US","MEAN_MOTION":"15.06401235","SEMIMAJOR_AXIS":"6925.345","REF_FRAME":"TEME","OBJECT_TYPE":"PAYLOAD","ECCENTRICITY":"0.00016020","DECAY_DATE":null,"MEAN_ELEMENT_THEORY":"SGP4","INCLINATION":"53.0544","EPHEMERIS_TYPE":"0","CENTER_NAME":"EARTH","SITE":"AFETR","ELEMENT_SET_NO":"999","OBJECT_ID":"2021-009R","MEAN_MOTION_DDOT":"0.0000000000000","FILE":"3265629","APOAPSIS":"548.319","OBJECT_NAME":"STARLINK-1962","PERIAPSIS":"546.100","MEAN_ANOMALY":"293.6222","GP_ID":"193323498","MEAN_MOTION_DOT":"0.00002726","LAUNCH_DATE":"2021-02-04","TLE_LINE1":"1 47563U 21009R   22006.43755179  .00002726  00000-0  20180-3 0  9999","TLE_LINE2":"2 47563  53.0544  19.7731 0001602  66.4935 293.6222 15.06401235 51209"},{"DECAY_DATE":null,"INCLINATION":"53.0569","MEAN_ELEMENT_THEORY":"SGP4","EPHEMERIS_TYPE":"0","ELEMENT_SET_NO":"999","SITE":"AFETR","CENTER_NAME":"EARTH","OBJECT_ID":"2021-009S","ARG_OF_PERICENTER":"75.9431","NORAD_CAT_ID":"47564","EPOCH":"2022-01-06T12:06:57.200544","BSTAR":"-0.00000154420000","RA_OF_ASC_NODE":"9.4669","RCS_SIZE":"LARGE","REV_AT_EPOCH":"5135","CLASSIFICATION_TYPE":"U","TIME_SYSTEM":"UTC","PERIOD":"95.593","REF_FRAME":"TEME","SEMIMAJOR_AXIS":"6925.386","MEAN_MOTION":"15.06387855","COUNTRY_CODE":"US","ECCENTRICITY":"0.00014370","OBJECT_TYPE":"PAYLOAD","LAUNCH_DATE":"2021-02-04","TLE_LINE1":"1 47564U 21009S   22006.50482871 -.00000304  00000-0 -15442-5 0  9993","TLE_LINE2":"2 47564  53.0569   9.4669 0001437  75.9431 284.1718 15.06387855 51357","MEAN_MOTION_DDOT":"0.0000000000000","FILE":"3265629","APOAPSIS":"548.246","OBJECT_NAME":"STARLINK-1963","MEAN_ANOMALY":"284.1718","PERIAPSIS":"546.256","MEAN_MOTION_DOT":"-0.00000304","GP_ID":"193324248"}];
